{
  "type": "FeatureCollection",
  "features": [
    {
      "type": "Feature",
      "properties": {
        "norad_id": 41589,
        "name": "EUTELSAT 117 WEST B (WAAS/PRN 131)",
        "group": "gnss",
        "lat": -0.0034019430475761875,
        "lon": 122.47597504251041,
        "alt_km": 35787.70354033308,
        "timestamp": "2025-12-23T09:49:07.325600+00:00",
        "meta_object_name": "EUTELSAT 117 WEST B (WAAS/PRN 131)",
        "meta_object_id": "2016-038B",
        "meta_epoch": "2025-12-22T10:46:33.521376",
        "meta_mean_motion": 1.00271447,
        "meta_eccentricity": 3.908e-05,
        "meta_inclination": 0.0103,
        "meta_ra_of_asc_node": 138.8686,
        "meta_arg_of_pericenter": 145.0277,
        "meta_mean_anomaly": 212.0013,
        "meta_ephemeris_type": 0,
        "meta_classification_type": "U",
        "meta_norad_cat_id": 41589,
        "meta_element_set_no": 999,
        "meta_rev_at_epoch": 3489,
        "meta_bstar": 0,
        "meta_mean_motion_dot": 1e-07,
        "meta_mean_motion_ddot": 0,
        "tle_line1": "1 41589U 16038B   25356.44899909  .00000010  00000+0  00000+0 0  9997",
        "tle_line2": "2 41589   0.0103 138.8686 0000390 145.0277 212.0013  1.00271447 34890"
      },
      "geometry": {
        "type": "Point",
        "coordinates": [
          122.47597504251041,
          -0.0034019430475761875
        ]
      }
    },
    {
      "type": "Feature",
      "properties": {
        "norad_id": 41859,
        "name": "GSAT0207 (GALILEO 15)",
        "group": "gnss",
        "lat": 25.87475003610531,
        "lon": 125.49412270980407,
        "alt_km": 23217.071588572413,
        "timestamp": "2025-12-23T09:49:07.325612+00:00",
        "meta_object_name": "GSAT0207 (GALILEO 15)",
        "meta_object_id": "2016-069A",
        "meta_epoch": "2025-12-22T04:24:39.710016",
        "meta_mean_motion": 1.70474442,
        "meta_eccentricity": 0.00024396,
        "meta_inclination": 55.3874,
        "meta_ra_of_asc_node": 105.9888,
        "meta_arg_of_pericenter": 317.4324,
        "meta_mean_anomaly": 42.5257,
        "meta_ephemeris_type": 0,
        "meta_classification_type": "U",
        "meta_norad_cat_id": 41859,
        "meta_element_set_no": 999,
        "meta_rev_at_epoch": 5638,
        "meta_bstar": 0,
        "meta_mean_motion_dot": 6e-08,
        "meta_mean_motion_ddot": 0,
        "tle_line1": "1 41859U 16069A   25356.18379294  .00000006  00000+0  00000+0 0  9997",
        "tle_line2": "2 41859  55.3874 105.9888 0002439 317.4324  42.5257  1.70474442 56382"
      },
      "geometry": {
        "type": "Point",
        "coordinates": [
          125.49412270980407,
          25.87475003610531
        ]
      }
    },
    {
      "type": "Feature",
      "properties": {
        "norad_id": 41860,
        "name": "GSAT0212 (GALILEO 16)",
        "group": "gnss",
        "lat": 44.34509283811347,
        "lon": -116.43040011015776,
        "alt_km": 23218.146119360947,
        "timestamp": "2025-12-23T09:49:07.325625+00:00",
        "meta_object_name": "GSAT0212 (GALILEO 16)",
        "meta_object_id": "2016-069B",
        "meta_epoch": "2025-12-20T20:44:32.412192",
        "meta_mean_motion": 1.70474703,
        "meta_eccentricity": 0.00020505,
        "meta_inclination": 55.3843,
        "meta_ra_of_asc_node": 106.0207,
        "meta_arg_of_pericenter": 18.9555,
        "meta_mean_anomaly": 341.0209,
        "meta_ephemeris_type": 0,
        "meta_classification_type": "U",
        "meta_norad_cat_id": 41860,
        "meta_element_set_no": 999,
        "meta_rev_at_epoch": 5661,
        "meta_bstar": 0,
        "meta_mean_motion_dot": 0,
        "meta_mean_motion_ddot": 0,
        "tle_line1": "1 41860U 16069B   25354.86426403  .00000000  00000+0  00000+0 0  9991",
        "tle_line2": "2 41860  55.3843 106.0207 0002050  18.9555 341.0209  1.70474703 56615"
      },
      "geometry": {
        "type": "Point",
        "coordinates": [
          -116.43040011015776,
          44.34509283811347
        ]
      }
    },
    {
      "type": "Feature",
      "properties": {
        "norad_id": 41861,
        "name": "GSAT0213 (GALILEO 17)",
        "group": "gnss",
        "lat": -53.09360623487966,
        "lon": -7.378661444057474,
        "alt_km": 23220.964128628915,
        "timestamp": "2025-12-23T09:49:07.325636+00:00",
        "meta_object_name": "GSAT0213 (GALILEO 17)",
        "meta_object_id": "2016-069C",
        "meta_epoch": "2025-12-17T17:05:43.699776",
        "meta_mean_motion": 1.70474994,
        "meta_eccentricity": 0.000259,
        "meta_inclination": 55.385,
        "meta_ra_of_asc_node": 106.1156,
        "meta_arg_of_pericenter": 282.1972,
        "meta_mean_anomaly": 77.7328,
        "meta_ephemeris_type": 0,
        "meta_classification_type": "U",
        "meta_norad_cat_id": 41861,
        "meta_element_set_no": 999,
        "meta_rev_at_epoch": 5642,
        "meta_bstar": 0,
        "meta_mean_motion_dot": -9e-08,
        "meta_mean_motion_ddot": 0,
        "tle_line1": "1 41861U 16069C   25351.71231134 -.00000009  00000+0  00000+0 0  9998",
        "tle_line2": "2 41861  55.3850 106.1156 0002590 282.1972  77.7328  1.70474994 56421"
      },
      "geometry": {
        "type": "Point",
        "coordinates": [
          -7.378661444057474,
          -53.09360623487966
        ]
      }
    },
    {
      "type": "Feature",
      "properties": {
        "norad_id": 41862,
        "name": "GSAT0214 (GALILEO 18)",
        "group": "gnss",
        "lat": 10.953954543645702,
        "lon": -81.72039666120658,
        "alt_km": 23223.397568048575,
        "timestamp": "2025-12-23T09:49:07.325647+00:00",
        "meta_object_name": "GSAT0214 (GALILEO 18)",
        "meta_object_id": "2016-069D",
        "meta_epoch": "2025-12-21T09:04:04.029024",
        "meta_mean_motion": 1.70474854,
        "meta_eccentricity": 0.00016223,
        "meta_inclination": 55.385,
        "meta_ra_of_asc_node": 106.0069,
        "meta_arg_of_pericenter": 287.8422,
        "meta_mean_anomaly": 72.112,
        "meta_ephemeris_type": 0,
        "meta_classification_type": "U",
        "meta_norad_cat_id": 41862,
        "meta_element_set_no": 999,
        "meta_rev_at_epoch": 5661,
        "meta_bstar": 0,
        "meta_mean_motion_dot": 2e-08,
        "meta_mean_motion_ddot": 0,
        "tle_line1": "1 41862U 16069D   25355.37782441  .00000002  00000+0  00000+0 0  9999",
        "tle_line2": "2 41862  55.3850 106.0069 0001622 287.8422  72.1120  1.70474854 56616"
      },
      "geometry": {
        "type": "Point",
        "coordinates": [
          -81.72039666120658,
          10.953954543645702
        ]
      }
    },
    {
      "type": "Feature",
      "properties": {
        "norad_id": 42709,
        "name": "SES-15 (WAAS/PRN 133)",
        "group": "gnss",
        "lat": 0.03443586752325701,
        "lon": 110.30777443214087,
        "alt_km": 35787.73275079508,
        "timestamp": "2025-12-23T09:49:07.325700+00:00",
        "meta_object_name": "SES-15 (WAAS/PRN 133)",
        "meta_object_id": "2017-026A",
        "meta_epoch": "2025-12-22T11:37:11.806752",
        "meta_mean_motion": 1.00267282,
        "meta_eccentricity": 1.521e-05,
        "meta_inclination": 0.0196,
        "meta_ra_of_asc_node": 338.6163,
        "meta_arg_of_pericenter": 354.9736,
        "meta_mean_anomaly": 162.8448,
        "meta_ephemeris_type": 0,
        "meta_classification_type": "U",
        "meta_norad_cat_id": 42709,
        "meta_element_set_no": 999,
        "meta_rev_at_epoch": 566,
        "meta_bstar": 0,
        "meta_mean_motion_dot": 8.2e-07,
        "meta_mean_motion_ddot": 0,
        "tle_line1": "1 42709U 17026A   25356.48416443  .00000082  00000+0  00000+0 0  9991",
        "tle_line2": "2 42709   0.0196 338.6163 0000152 354.9736 162.8448  1.00267282  5663"
      },
      "geometry": {
        "type": "Point",
        "coordinates": [
          110.30777443214087,
          0.03443586752325701
        ]
      }
    },
    {
      "type": "Feature",
      "properties": {
        "norad_id": 42738,
        "name": "QZS-2 (QZSS/PRN 194)",
        "group": "gnss",
        "lat": 29.334687141220716,
        "lon": 23.18092595475592,
        "alt_km": 38092.96621810505,
        "timestamp": "2025-12-23T09:49:07.325714+00:00",
        "meta_object_name": "QZS-2 (QZSS/PRN 194)",
        "meta_object_id": "2017-028A",
        "meta_epoch": "2025-12-21T12:44:15.516096",
        "meta_mean_motion": 1.00280763,
        "meta_eccentricity": 0.07561437,
        "meta_inclination": 39.6996,
        "meta_ra_of_asc_node": 245.7532,
        "meta_arg_of_pericenter": 269.5788,
        "meta_mean_anomaly": 268.1676,
        "meta_ephemeris_type": 0,
        "meta_classification_type": "U",
        "meta_norad_cat_id": 42738,
        "meta_element_set_no": 999,
        "meta_rev_at_epoch": 584,
        "meta_bstar": 0,
        "meta_mean_motion_dot": -1.06e-06,
        "meta_mean_motion_ddot": 0,
        "tle_line1": "1 42738U 17028A   25355.53073514 -.00000106  00000+0  00000+0 0  9996",
        "tle_line2": "2 42738  39.6996 245.7532 0756143 269.5788 268.1676  1.00280763  5847"
      },
      "geometry": {
        "type": "Point",
        "coordinates": [
          23.18092595475592,
          29.334687141220716
        ]
      }
    }
  ]
}